[Satellite]
VERSION=1.1
NAME=HISAKI (SPRINT-A)
NICKNAME=HISAKI (SPRINT-A)
TLE1=1 39253U 13049A   20157.94241120  .00000052  00000-0 -18196-4 0  9994
TLE2=2 39253  29.7192 252.7422 0136787 168.5134 191.8604 13.55223972333487
STATUS=0
